{
  "type": "FeatureCollection",
  "features": [
    {
      "type": "Feature",
      "properties": {
        "norad_id": 36036,
        "name": "SMOS",
        "group": "resource",
        "lat": 22.69987595164436,
        "lon": -7.369330335818271,
        "alt_km": 758.7500898313929,
        "timestamp": "2025-12-09T23:33:23.505960+00:00",
        "meta_object_name": "SMOS",
        "meta_object_id": "2009-059A",
        "meta_epoch": "2025-12-09T11:09:16.407072",
        "meta_mean_motion": 14.39737201,
        "meta_eccentricity": 0.00011103,
        "meta_inclination": 98.4382,
        "meta_ra_of_asc_node": 168.5617,
        "meta_arg_of_pericenter": 84.4933,
        "meta_mean_anomaly": 275.6382,
        "meta_ephemeris_type": 0,
        "meta_classification_type": "U",
        "meta_norad_cat_id": 36036,
        "meta_element_set_no": 999,
        "meta_rev_at_epoch": 84615,
        "meta_bstar": 0.00024021854,
        "meta_mean_motion_dot": 7.09e-06,
        "meta_mean_motion_ddot": 0,
        "tle_line1": "1 36036U 09059A   25343.46477323  .00000709  00000+0  24022-3 0  9992",
        "tle_line2": "2 36036  98.4382 168.5617 0001110  84.4933 275.6382 14.39737201846156"
      },
      "geometry": {
        "type": "Point",
        "coordinates": [
          -7.369330335818271,
          22.69987595164436
        ]
      }
    },
    {
      "type": "Feature",
      "properties": {
        "norad_id": 36110,
        "name": "YAOGAN-7",
        "group": "resource",
        "lat": -34.30438460068163,
        "lon": -128.72456426198676,
        "alt_km": 629.1952929761292,
        "timestamp": "2025-12-09T23:33:23.505970+00:00",
        "meta_object_name": "YAOGAN-7",
        "meta_object_id": "2009-069A",
        "meta_epoch": "2025-12-09T15:35:14.157024",
        "meta_mean_motion": 14.7772571,
        "meta_eccentricity": 0.00234581,
        "meta_inclination": 98.0302,
        "meta_ra_of_asc_node": 225.4175,
        "meta_arg_of_pericenter": 291.8264,
        "meta_mean_anomaly": 68.0451,
        "meta_ephemeris_type": 0,
        "meta_classification_type": "U",
        "meta_norad_cat_id": 36110,
        "meta_element_set_no": 999,
        "meta_rev_at_epoch": 86163,
        "meta_bstar": 0.00017338681,
        "meta_mean_motion_dot": 1.195e-05,
        "meta_mean_motion_ddot": 0,
        "tle_line1": "1 36110U 09069A   25343.64946941  .00001195  00000+0  17339-3 0  9996",
        "tle_line2": "2 36110  98.0302 225.4175 0023458 291.8264  68.0451 14.77725710861634"
      },
      "geometry": {
        "type": "Point",
        "coordinates": [
          -128.72456426198676,
          -34.30438460068163
        ]
      }
    },
    {
      "type": "Feature",
      "properties": {
        "norad_id": 36605,
        "name": "TANDEM-X",
        "group": "resource",
        "lat": 19.31176489129127,
        "lon": 172.02921661508142,
        "alt_km": 508.3498960269535,
        "timestamp": "2025-12-09T23:33:23.505982+00:00",
        "meta_object_name": "TANDEM-X",
        "meta_object_id": "2010-030A",
        "meta_epoch": "2025-12-09T11:47:13.197408",
        "meta_mean_motion": 15.19145601,
        "meta_eccentricity": 0.0002009,
        "meta_inclination": 97.445,
        "meta_ra_of_asc_node": 348.9195,
        "meta_arg_of_pericenter": 85.8365,
        "meta_mean_anomaly": 274.3099,
        "meta_ephemeris_type": 0,
        "meta_classification_type": "U",
        "meta_norad_cat_id": 36605,
        "meta_element_set_no": 999,
        "meta_rev_at_epoch": 85784,
        "meta_bstar": 0.00012722332,
        "meta_mean_motion_dot": 2.605e-05,
        "meta_mean_motion_ddot": 0,
        "tle_line1": "1 36605U 10030A   25343.49112497  .00002605  00000+0  12722-3 0  9997",
        "tle_line2": "2 36605  97.4450 348.9195 0002009  85.8365 274.3099 15.19145601857845"
      },
      "geometry": {
        "type": "Point",
        "coordinates": [
          172.02921661508142,
          19.31176489129127
        ]
      }
    },
    {
      "type": "Feature",
      "properties": {
        "norad_id": 36795,
        "name": "CARTOSAT-2B",
        "group": "resource",
        "lat": -61.68332376071093,
        "lon": -161.60711372960662,
        "alt_km": 648.7322207510506,
        "timestamp": "2025-12-09T23:33:23.505992+00:00",
        "meta_object_name": "CARTOSAT-2B",
        "meta_object_id": "2010-035A",
        "meta_epoch": "2025-12-09T14:20:37.597632",
        "meta_mean_motion": 14.78783332,
        "meta_eccentricity": 0.00129458,
        "meta_inclination": 97.785,
        "meta_ra_of_asc_node": 32.7301,
        "meta_arg_of_pericenter": 86.3625,
        "meta_mean_anomaly": 273.9067,
        "meta_ephemeris_type": 0,
        "meta_classification_type": "U",
        "meta_norad_cat_id": 36795,
        "meta_element_set_no": 999,
        "meta_rev_at_epoch": 83183,
        "meta_bstar": 0.00017758756,
        "meta_mean_motion_dot": 1.257e-05,
        "meta_mean_motion_ddot": 0,
        "tle_line1": "1 36795U 10035A   25343.59765738  .00001257  00000+0  17759-3 0  9992",
        "tle_line2": "2 36795  97.7850  32.7301 0012945  86.3625 273.9067 14.78783332831838"
      },
      "geometry": {
        "type": "Point",
        "coordinates": [
          -161.60711372960662,
          -61.68332376071093
        ]
      }
    },
    {
      "type": "Feature",
      "properties": {
        "norad_id": 36834,
        "name": "YAOGAN-10",
        "group": "resource",
        "lat": -80.5211944250877,
        "lon": 127.39989549817072,
        "alt_km": 623.2030391516346,
        "timestamp": "2025-12-09T23:33:23.506003+00:00",
        "meta_object_name": "YAOGAN-10",
        "meta_object_id": "2010-038A",
        "meta_epoch": "2025-12-09T14:57:20.681856",
        "meta_mean_motion": 14.84587805,
        "meta_eccentricity": 0.0001406,
        "meta_inclination": 97.9139,
        "meta_ra_of_asc_node": 3.4667,
        "meta_arg_of_pericenter": 80.2279,
        "meta_mean_anomaly": 70.412,
        "meta_ephemeris_type": 0,
        "meta_classification_type": "U",
        "meta_norad_cat_id": 36834,
        "meta_element_set_no": 999,
        "meta_rev_at_epoch": 82907,
        "meta_bstar": 0.00038752872,
        "meta_mean_motion_dot": 3.219e-05,
        "meta_mean_motion_ddot": 0,
        "tle_line1": "1 36834U 10038A   25343.62315604  .00003219  00000+0  38753-3 0  9993",
        "tle_line2": "2 36834  97.9139   3.4667 0001406  80.2279  70.4120 14.84587805829079"
      },
      "geometry": {
        "type": "Point",
        "coordinates": [
          127.39989549817072,
          -80.5211944250877
        ]
      }
    },
    {
      "type": "Feature",
      "properties": {
        "norad_id": 37216,
        "name": "COSMO-SKYMED 4",
        "group": "resource",
        "lat": -31.855837388708657,
        "lon": -19.59121958668937,
        "alt_km": 629.2674682399083,
        "timestamp": "2025-12-09T23:33:23.506014+00:00",
        "meta_object_name": "COSMO-SKYMED 4",
        "meta_object_id": "2010-060A",
        "meta_epoch": "2025-12-09T14:30:05.192064",
        "meta_mean_motion": 14.82163307,
        "meta_eccentricity": 0.00013891,
        "meta_inclination": 97.8803,
        "meta_ra_of_asc_node": 164.9745,
        "meta_arg_of_pericenter": 80.0592,
        "meta_mean_anomaly": 280.0778,
        "meta_ephemeris_type": 0,
        "meta_classification_type": "U",
        "meta_norad_cat_id": 37216,
        "meta_element_set_no": 999,
        "meta_rev_at_epoch": 81648,
        "meta_bstar": 0.00015030831,
        "meta_mean_motion_dot": 1.145e-05,
        "meta_mean_motion_ddot": 0,
        "tle_line1": "1 37216U 10060A   25343.60422676  .00001145  00000+0  15031-3 0  9999",
        "tle_line2": "2 37216  97.8803 164.9745 0001389  80.0592 280.0778 14.82163307816481"
      },
      "geometry": {
        "type": "Point",
        "coordinates": [
          -19.59121958668937,
          -31.855837388708657
        ]
      }
    },
    {
      "type": "Feature",
      "properties": {
        "norad_id": 37387,
        "name": "RESOURCESAT-2",
        "group": "resource",
        "lat": 56.3292886370425,
        "lon": 34.11835985512967,
        "alt_km": 809.844374608525,
        "timestamp": "2025-12-09T23:33:23.506024+00:00",
        "meta_object_name": "RESOURCESAT-2",
        "meta_object_id": "2011-015A",
        "meta_epoch": "2025-12-09T14:50:31.132032",
        "meta_mean_motion": 14.21595479,
        "meta_eccentricity": 0.00065744,
        "meta_inclination": 98.7881,
        "meta_ra_of_asc_node": 47.1842,
        "meta_arg_of_pericenter": 50.6938,
        "meta_mean_anomaly": 309.4822,
        "meta_ephemeris_type": 0,
        "meta_classification_type": "U",
        "meta_norad_cat_id": 37387,
        "meta_element_set_no": 999,
        "meta_rev_at_epoch": 75924,
        "meta_bstar": 0.00014768917,
        "meta_mean_motion_dot": 2.79e-06,
        "meta_mean_motion_ddot": 0,
        "tle_line1": "1 37387U 11015A   25343.61841588  .00000279  00000+0  14769-3 0  9991",
        "tle_line2": "2 37387  98.7881  47.1842 0006574  50.6938 309.4822 14.21595479759242"
      },
      "geometry": {
        "type": "Point",
        "coordinates": [
          34.11835985512967,
          56.3292886370425
        ]
      }
    }
  ]
}